[{"OBJECT_NAME":"CZ-3C DEB","OBJECT_ID":"2010-057U","EPOCH":"2026-02-27T20:47:45.338208","MEAN_MOTION":2.22629531,"ECCENTRICITY":0.7184476,"INCLINATION":20.0639,"RA_OF_ASC_NODE":130.3839,"ARG_OF_PERICENTER":97.4239,"MEAN_ANOMALY":8.9758,"EPHEMERIS_TYPE":0,"CLASSIFICATION_TYPE":"U","NORAD_CAT_ID":39354,"ELEMENT_SET_NO":999,"REV_AT_EPOCH":9636,"BSTAR":-0.0013159,"MEAN_MOTION_DOT":-1.07e-6,"MEAN_MOTION_DDOT":0},{"OBJECT_NAME":"FM-6","OBJECT_ID":"2013-058A","EPOCH":"2026-03-03T03:49:38.807616","MEAN_MOTION":1.00270658,"ECCENTRICITY":0.0003044,"INCLINATION":0.0216,"RA_OF_ASC_NODE":129.4848,"ARG_OF_PERICENTER":52.278,"MEAN_ANOMALY":280.3902,"EPHEMERIS_TYPE":0,"CLASSIFICATION_TYPE":"U","NORAD_CAT_ID":39360,"ELEMENT_SET_NO":999,"REV_AT_EPOCH":4501,"BSTAR":0,"MEAN_MOTION_DOT":-3.2e-7,"MEAN_MOTION_DDOT":0},{"OBJECT_NAME":"RADUGA-1M 3","OBJECT_ID":"2013-062A","EPOCH":"2026-03-03T02:15:42.907104","MEAN_MOTION":1.00272582,"ECCENTRICITY":2.48e-5,"INCLINATION":5.6926,"RA_OF_ASC_NODE":73.6958,"ARG_OF_PERICENTER":252.4231,"MEAN_ANOMALY":263.6501,"EPHEMERIS_TYPE":0,"CLASSIFICATION_TYPE":"U","NORAD_CAT_ID":39375,"ELEMENT_SET_NO":999,"REV_AT_EPOCH":4504,"BSTAR":0,"MEAN_MOTION_DOT":1.4e-6,"MEAN_MOTION_DDOT":0},{"OBJECT_NAME":"BREEZE-M R/B","OBJECT_ID":"2013-062B","EPOCH":"2026-03-02T15:36:32.558976","MEAN_MOTION":1.04209066,"ECCENTRICITY":0.02312,"INCLINATION":9.1938,"RA_OF_ASC_NODE":52.8901,"ARG_OF_PERICENTER":112.9801,"MEAN_ANOMALY":249.6049,"EPHEMERIS_TYPE":0,"CLASSIFICATION_TYPE":"U","NORAD_CAT_ID":39376,"ELEMENT_SET_NO":999,"REV_AT_EPOCH":4683,"BSTAR":0,"MEAN_MOTION_DOT":-1.32e-6,"MEAN_MOTION_DDOT":0},{"OBJECT_NAME":"SES-8","OBJECT_ID":"2013-071A","EPOCH":"2026-03-02T14:42:59.332608","MEAN_MOTION":1.00267709,"ECCENTRICITY":0.0001676,"INCLINATION":0.0622,"RA_OF_ASC_NODE":272.7609,"ARG_OF_PERICENTER":99.9747,"MEAN_ANOMALY":103.3736,"EPHEMERIS_TYPE":0,"CLASSIFICATION_TYPE":"U","NORAD_CAT_ID":39460,"ELEMENT_SET_NO":999,"REV_AT_EPOCH":4337,"BSTAR":0,"MEAN_MOTION_DOT":-2.85e-6,"MEAN_MOTION_DDOT":0},{"OBJECT_NAME":"INMARSAT 5-F1","OBJECT_ID":"2013-073A","EPOCH":"2026-03-03T02:23:38.698944","MEAN_MOTION":1.00268037,"ECCENTRICITY":5.09e-5,"INCLINATION":0.0208,"RA_OF_ASC_NODE":126.5128,"ARG_OF_PERICENTER":202.1926,"MEAN_ANOMALY":290.6225,"EPHEMERIS_TYPE":0,"CLASSIFICATION_TYPE":"U","NORAD_CAT_ID":39476,"ELEMENT_SET_NO":999,"REV_AT_EPOCH":4451,"BSTAR":0,"MEAN_MOTION_DOT":1.3e-7,"MEAN_MOTION_DDOT":0},{"OBJECT_NAME":"TKSAT-1 (TUPAC KATARI)","OBJECT_ID":"2013-075A","EPOCH":"2026-03-03T03:33:38.719584","MEAN_MOTION":1.00271707,"ECCENTRICITY":0.0002882,"INCLINATION":0.0357,"RA_OF_ASC_NODE":85.8121,"ARG_OF_PERICENTER":249.802,"MEAN_ANOMALY":151.5012,"EPHEMERIS_TYPE":0,"CLASSIFICATION_TYPE":"U","NORAD_CAT_ID":39481,"ELEMENT_SET_NO":999,"REV_AT_EPOCH":4454,"BSTAR":0,"MEAN_MOTION_DOT":-2.1e-6,"MEAN_MOTION_DDOT":0},{"OBJECT_NAME":"EXPRESS-AM5","OBJECT_ID":"2013-077A","EPOCH":"2026-03-03T07:53:48.005376","MEAN_MOTION":1.00269311,"ECCENTRICITY":0.0002444,"INCLINATION":0.0228,"RA_OF_ASC_NODE":155.0596,"ARG_OF_PERICENTER":174.5569,"MEAN_ANOMALY":89.974,"EPHEMERIS_TYPE":0,"CLASSIFICATION_TYPE":"U","NORAD_CAT_ID":39487,"ELEMENT_SET_NO":999,"REV_AT_EPOCH":4529,"BSTAR":0,"MEAN_MOTION_DOT":0,"MEAN_MOTION_DDOT":0},{"OBJECT_NAME":"BREEZE-M R/B","OBJECT_ID":"2013-073C","EPOCH":"2026-03-03T00:27:58.765824","MEAN_MOTION":1.09862298,"ECCENTRICITY":0.7459264,"INCLINATION":24.2421,"RA_OF_ASC_NODE":193.8211,"ARG_OF_PERICENTER":149.2688,"MEAN_ANOMALY":291.9582,"EPHEMERIS_TYPE":0,"CLASSIFICATION_TYPE":"U","NORAD_CAT_ID":39494,"ELEMENT_SET_NO":999,"REV_AT_EPOCH":4810,"BSTAR":0,"MEAN_MOTION_DOT":-3.93e-6,"MEAN_MOTION_DDOT":0},{"OBJECT_NAME":"GSAT-14","OBJECT_ID":"2014-001A","EPOCH":"2026-03-03T01:17:21.750144","MEAN_MOTION":1.00271419,"ECCENTRICITY":0.0004668,"INCLINATION":0.0447,"RA_OF_ASC_NODE":273.6463,"ARG_OF_PERICENTER":43.6262,"MEAN_ANOMALY":296.8451,"EPHEMERIS_TYPE":0,"CLASSIFICATION_TYPE":"U","NORAD_CAT_ID":39498,"ELEMENT_SET_NO":999,"REV_AT_EPOCH":4431,"BSTAR":0,"MEAN_MOTION_DOT":-9.2e-7,"MEAN_MOTION_DDOT":0},{"OBJECT_NAME":"THAICOM 6","OBJECT_ID":"2014-002A","EPOCH":"2026-03-03T04:10:46.879680","MEAN_MOTION":1.00270103,"ECCENTRICITY":0.0001891,"INCLINATION":0.0256,"RA_OF_ASC_NODE":147.0766,"ARG_OF_PERICENTER":260.5264,"MEAN_ANOMALY":254.5452,"EPHEMERIS_TYPE":0,"CLASSIFICATION_TYPE":"U","NORAD_CAT_ID":39500,"ELEMENT_SET_NO":999,"REV_AT_EPOCH":4439,"BSTAR":0,"MEAN_MOTION_DOT":-1.36e-6,"MEAN_MOTION_DDOT":0},{"OBJECT_NAME":"TDRS 12","OBJECT_ID":"2014-004A","EPOCH":"2026-03-03T04:20:33.380160","MEAN_MOTION":1.00270499,"ECCENTRICITY":0.0003976,"INCLINATION":3.8746,"RA_OF_ASC_NODE":17.218,"ARG_OF_PERICENTER":267.0874,"MEAN_ANOMALY":260.8909,"EPHEMERIS_TYPE":0,"CLASSIFICATION_TYPE":"U","NORAD_CAT_ID":39504,"ELEMENT_SET_NO":999,"REV_AT_EPOCH":4321,"BSTAR":0,"MEAN_MOTION_DOT":-2.83e-6,"MEAN_MOTION_DDOT":0},{"OBJECT_NAME":"ABS-2","OBJECT_ID":"2014-006A","EPOCH":"2026-03-03T02:27:04.318848","MEAN_MOTION":1.00271823,"ECCENTRICITY":0.0003062,"INCLINATION":0.0519,"RA_OF_ASC_NODE":274.6036,"ARG_OF_PERICENTER":59.7449,"MEAN_ANOMALY":298.1821,"EPHEMERIS_TYPE":0,"CLASSIFICATION_TYPE":"U","NORAD_CAT_ID":39508,"ELEMENT_SET_NO":999,"REV_AT_EPOCH":4421,"BSTAR":0,"MEAN_MOTION_DOT":-1.01e-6,"MEAN_MOTION_DDOT":0},{"OBJECT_NAME":"ATHENA-FIDUS","OBJECT_ID":"2014-006B","EPOCH":"2026-03-03T02:16:27.835104","MEAN_MOTION":1.0027102,"ECCENTRICITY":0.0001665,"INCLINATION":0.0281,"RA_OF_ASC_NODE":112.3623,"ARG_OF_PERICENTER":244.0309,"MEAN_ANOMALY":236.3641,"EPHEMERIS_TYPE":0,"CLASSIFICATION_TYPE":"U","NORAD_CAT_ID":39509,"ELEMENT_SET_NO":999,"REV_AT_EPOCH":4402,"BSTAR":0,"MEAN_MOTION_DOT":1.38e-6,"MEAN_MOTION_DDOT":0},{"OBJECT_NAME":"TURKSAT 4A","OBJECT_ID":"2014-007A","EPOCH":"2026-03-03T02:17:42.717120","MEAN_MOTION":1.00270369,"ECCENTRICITY":0.0004332,"INCLINATION":0.0717,"RA_OF_ASC_NODE":290.2991,"ARG_OF_PERICENTER":18.3094,"MEAN_ANOMALY":288.6548,"EPHEMERIS_TYPE":0,"CLASSIFICATION_TYPE":"U","NORAD_CAT_ID":39522,"ELEMENT_SET_NO":999,"REV_AT_EPOCH":4390,"BSTAR":0,"MEAN_MOTION_DOT":1.3e-6,"MEAN_MOTION_DDOT":0},{"OBJECT_NAME":"CZ-3C DEB","OBJECT_ID":"2010-057X","EPOCH":"2026-03-02T09:52:48.395136","MEAN_MOTION":2.25319484,"ECCENTRICITY":0.72352251,"INCLINATION":20.3246,"RA_OF_ASC_NODE":11.2909,"ARG_OF_PERICENTER":329.3274,"MEAN_ANOMALY":3.4832,"EPHEMERIS_TYPE":0,"CLASSIFICATION_TYPE":"U","NORAD_CAT_ID":39600,"ELEMENT_SET_NO":999,"REV_AT_EPOCH":10083,"BSTAR":0.0021508141,"MEAN_MOTION_DOT":4.45e-6,"MEAN_MOTION_DDOT":0},{"OBJECT_NAME":"EXPRESS-AT1","OBJECT_ID":"2014-010A","EPOCH":"2026-03-03T04:10:26.535072","MEAN_MOTION":1.00286556,"ECCENTRICITY":4.63e-5,"INCLINATION":0.0182,"RA_OF_ASC_NODE":234.3603,"ARG_OF_PERICENTER":182.8711,"MEAN_ANOMALY":222.3054,"EPHEMERIS_TYPE":0,"CLASSIFICATION_TYPE":"U","NORAD_CAT_ID":39612,"ELEMENT_SET_NO":999,"REV_AT_EPOCH":4375,"BSTAR":0,"MEAN_MOTION_DOT":6.1e-7,"MEAN_MOTION_DDOT":0},{"OBJECT_NAME":"EXPRESS-AT2","OBJECT_ID":"2014-010B","EPOCH":"2026-03-03T06:10:57.860832","MEAN_MOTION":1.00270562,"ECCENTRICITY":0.0001294,"INCLINATION":0.0217,"RA_OF_ASC_NODE":160.8306,"ARG_OF_PERICENTER":106.862,"MEAN_ANOMALY":125.9346,"EPHEMERIS_TYPE":0,"CLASSIFICATION_TYPE":"U","NORAD_CAT_ID":39613,"ELEMENT_SET_NO":999,"REV_AT_EPOCH":4343,"BSTAR":0,"MEAN_MOTION_DOT":0,"MEAN_MOTION_DDOT":0},{"OBJECT_NAME":"BREEZE-M R/B","OBJECT_ID":"2014-010C","EPOCH":"2026-03-03T02:53:14.167968","MEAN_MOTION":0.90579875,"ECCENTRICITY":0.0671899,"INCLINATION":10.6964,"RA_OF_ASC_NODE":60.1701,"ARG_OF_PERICENTER":49.6025,"MEAN_ANOMALY":316.201,"EPHEMERIS_TYPE":0,"CLASSIFICATION_TYPE":"U","NORAD_CAT_ID":39614,"ELEMENT_SET_NO":999,"REV_AT_EPOCH":3954,"BSTAR":0,"MEAN_MOTION_DOT":-1.78e-6,"MEAN_MOTION_DDOT":0},{"OBJECT_NAME":"AMAZONAS 4A","OBJECT_ID":"2014-011A","EPOCH":"2026-03-03T03:25:38.777088","MEAN_MOTION":1.00271481,"ECCENTRICITY":0.0002735,"INCLINATION":0.0582,"RA_OF_ASC_NODE":159.5958,"ARG_OF_PERICENTER":156.6517,"MEAN_ANOMALY":182.0698,"EPHEMERIS_TYPE":0,"CLASSIFICATION_TYPE":"U","NORAD_CAT_ID":39616,"ELEMENT_SET_NO":999,"REV_AT_EPOCH":4365,"BSTAR":0,"MEAN_MOTION_DOT":-2.68e-6,"MEAN_MOTION_DDOT":0},{"OBJECT_NAME":"ASTRA 5B","OBJECT_ID":"2014-011B","EPOCH":"2026-03-03T03:13:38.772192","MEAN_MOTION":1.00270217,"ECCENTRICITY":0.0004207,"INCLINATION":0.0936,"RA_OF_ASC_NODE":297.5206,"ARG_OF_PERICENTER":25.9413,"MEAN_ANOMALY":269.3272,"EPHEMERIS_TYPE":0,"CLASSIFICATION_TYPE":"U","NORAD_CAT_ID":39617,"ELEMENT_SET_NO":999,"REV_AT_EPOCH":4360,"BSTAR":0,"MEAN_MOTION_DOT":1.21e-6,"MEAN_MOTION_DDOT":0},{"OBJECT_NAME":"IRNSS-1B","OBJECT_ID":"2014-017A","EPOCH":"2026-02-28T02:02:21.717312","MEAN_MOTION":1.00269801,"ECCENTRICITY":0.00210828,"INCLINATION":29.1168,"RA_OF_ASC_NODE":242.264,"ARG_OF_PERICENTER":179.2495,"MEAN_ANOMALY":181.947,"EPHEMERIS_TYPE":0,"CLASSIFICATION_TYPE":"U","NORAD_CAT_ID":39635,"ELEMENT_SET_NO":999,"REV_AT_EPOCH":4370,"BSTAR":0,"MEAN_MOTION_DOT":1.17e-6,"MEAN_MOTION_DDOT":0},{"OBJECT_NAME":"CTS DEB [ARRAY COVER]","OBJECT_ID":"1976-004E","EPOCH":"2026-03-02T23:48:14.688288","MEAN_MOTION":1.00303985,"ECCENTRICITY":0.0033093,"INCLINATION":3.5055,"RA_OF_ASC_NODE":267.9793,"ARG_OF_PERICENTER":166.8209,"MEAN_ANOMALY":321.2206,"EPHEMERIS_TYPE":0,"CLASSIFICATION_TYPE":"U","NORAD_CAT_ID":39688,"ELEMENT_SET_NO":999,"REV_AT_EPOCH":4171,"BSTAR":0,"MEAN_MOTION_DOT":-6.0e-8,"MEAN_MOTION_DDOT":0},{"OBJECT_NAME":"CTS DEB [ARRAY COVER]","OBJECT_ID":"1976-004F","EPOCH":"2026-02-27T12:53:13.243776","MEAN_MOTION":1.00281244,"ECCENTRICITY":0.01648217,"INCLINATION":3.548,"RA_OF_ASC_NODE":268.8015,"ARG_OF_PERICENTER":63.2161,"MEAN_ANOMALY":298.2693,"EPHEMERIS_TYPE":0,"CLASSIFICATION_TYPE":"U","NORAD_CAT_ID":39689,"ELEMENT_SET_NO":999,"REV_AT_EPOCH":6579,"BSTAR":0,"MEAN_MOTION_DOT":-2.98e-6,"MEAN_MOTION_DDOT":0}]
